{"type": "FeatureCollection", "features": [ {"type": "Feature", "properties": {"norad_id": 43262, "name": "GAOFEN-1 04", "group": "resource", "lat": -44.08683537818748, "lon": -147.4219795625214, "alt_km": 648.0853818507767, "timestamp": "2025-12-08T15:42:49.435973+00:00", "meta": {"OBJECT_NAME": "GAOFEN-1 04", "OBJECT_ID": "2018-031D", "EPOCH": "2025-12-08T06:34:01.917120", "MEAN_MOTION": 14.76436649, "ECCENTRICITY": 0.00011651, "INCLINATION": 98.0814, "RA_OF_ASC_NODE": 40.1073, "ARG_OF_PERICENTER": 59.7911, "MEAN_ANOMALY": 300.3414, "EPHEMERIS_TYPE": 0, "CLASSIFICATION_TYPE": "U", "NORAD_CAT_ID": 43262, "ELEMENT_SET_NO": 999, "REV_AT_EPOCH": 41451, "BSTAR": 0.00027556836, "MEAN_MOTION_DOT": 1.865e-05, "MEAN_MOTION_DDOT": 0}, "tle": {"line1": "1 43262U 18031D   25342.27363330  .00001865  00000+0  27557-3 0  9991", "line2": "2 43262  98.0814  40.1073 0001165  59.7911 300.3414 14.76436649414519"}}, "geometry": {"type": "Point", "coordinates": [-147.4219795625214, -44.08683537818748]}}, {"type": "Feature", "properties": {"norad_id": 43437, "name": "SENTINEL-3B", "group": "resource", "lat": 40.29040413778674, "lon": 40.50342622267428, "alt_km": 798.9938347669922, "timestamp": "2025-12-08T15:42:49.435983+00:00", "meta": {"OBJECT_NAME": "SENTINEL-3B", "OBJECT_ID": "2018-039A", "EPOCH": "2025-12-08T03:44:28.047552", "MEAN_MOTION": 14.26740074, "ECCENTRICITY": 0.00015241, "INCLINATION": 98.6271, "RA_OF_ASC_NODE": 47.4066, "ARG_OF_PERICENTER": 107.4401, "MEAN_ANOMALY": 252.6946, "EPHEMERIS_TYPE": 0, "CLASSIFICATION_TYPE": "U", "NORAD_CAT_ID": 43437, "ELEMENT_SET_NO": 999, "REV_AT_EPOCH": 39688, "BSTAR": 0.00012292814, "MEAN_MOTION_DOT": 2.54e-06, "MEAN_MOTION_DDOT": 0}, "tle": {"line1": "1 43437U 18039A   25342.15588018  .00000254  00000+0  12293-3 0  9994", "line2": "2 43437  98.6271  47.4066 0001524 107.4401 252.6946 14.26740074396885"}}, "geometry": {"type": "Point", "coordinates": [40.50342622267428, 40.29040413778674]}}, {"type": "Feature", "properties": {"norad_id": 43461, "name": "GAOFEN-5 01", "group": "resource", "lat": -73.42170419516678, "lon": 95.66567875520363, "alt_km": 699.3213350020214, "timestamp": "2025-12-08T15:42:49.435993+00:00", "meta": {"OBJECT_NAME": "GAOFEN-5 01", "OBJECT_ID": "2018-043A", "EPOCH": "2025-12-07T22:06:10.768608", "MEAN_MOTION": 14.60401449, "ECCENTRICITY": 0.00012884, "INCLINATION": 98.4318, "RA_OF_ASC_NODE": 304.8042, "ARG_OF_PERICENTER": 357.5447, "MEAN_ANOMALY": 2.5746, "EPHEMERIS_TYPE": 0, "CLASSIFICATION_TYPE": "U", "NORAD_CAT_ID": 43461, "ELEMENT_SET_NO": 999, "REV_AT_EPOCH": 40377, "BSTAR": 0.00018980945, "MEAN_MOTION_DOT": 8.7e-06, "MEAN_MOTION_DDOT": 0}, "tle": {"line1": "1 43461U 18043A   25341.92095797  .00000870  00000+0  18981-3 0  9991", "line2": "2 43461  98.4318 304.8042 0001288 357.5447   2.5746 14.60401449403776"}}, "geometry": {"type": "Point", "coordinates": [95.66567875520363, -73.42170419516678]}}, {"type": "Feature", "properties": {"norad_id": 43484, "name": "GAOFEN-6", "group": "resource", "lat": 13.728913082998373, "lon": 45.13863365634442, "alt_km": 636.8621975550113, "timestamp": "2025-12-08T15:42:49.436003+00:00", "meta": {"OBJECT_NAME": "GAOFEN-6", "OBJECT_ID": "2018-048A", "EPOCH": "2025-12-08T05:53:34.230912", "MEAN_MOTION": 14.76554581, "ECCENTRICITY": 0.00132847, "INCLINATION": 97.8037, "RA_OF_ASC_NODE": 46.6632, "ARG_OF_PERICENTER": 77.0577, "MEAN_ANOMALY": 283.2116, "EPHEMERIS_TYPE": 0, "CLASSIFICATION_TYPE": "U", "NORAD_CAT_ID": 43484, "ELEMENT_SET_NO": 999, "REV_AT_EPOCH": 40521, "BSTAR": 0.00024330221, "MEAN_MOTION_DOT": 1.65e-05, "MEAN_MOTION_DDOT": 0}, "tle": {"line1": "1 43484U 18048A   25342.24553508  .00001650  00000+0  24330-3 0  9998", "line2": "2 43484  97.8037  46.6632 0013284  77.0577 283.2116 14.76554581405218"}}, "geometry": {"type": "Point", "coordinates": [45.13863365634442, 13.728913082998373]}}, {"type": "Feature", "properties": {"norad_id": 43585, "name": "GAOFEN-11 01", "group": "resource", "lat": -15.253579823366557, "lon": -136.33990076726167, "alt_km": 426.67850269236897, "timestamp": "2025-12-08T15:42:49.436014+00:00", "meta": {"OBJECT_NAME": "GAOFEN-11 01", "OBJECT_ID": "2018-063A", "EPOCH": "2025-12-08T07:07:16.653792", "MEAN_MOTION": 15.49031823, "ECCENTRICITY": 0.00045828, "INCLINATION": 97.1561, "RA_OF_ASC_NODE": 45.2686, "ARG_OF_PERICENTER": 333.5475, "MEAN_ANOMALY": 26.5542, "EPHEMERIS_TYPE": 0, "CLASSIFICATION_TYPE": "U", "NORAD_CAT_ID": 43585, "ELEMENT_SET_NO": 999, "REV_AT_EPOCH": 41073, "BSTAR": 0.00032671716, "MEAN_MOTION_DOT": 0.00017629, "MEAN_MOTION_DDOT": 0}, "tle": {"line1": "1 43585U 18063A   25342.29672053  .00017629  00000+0  32672-3 0  9990", "line2": "2 43585  97.1561  45.2686 0004582 333.5475  26.5542 15.49031823410731"}}, "geometry": {"type": "Point", "coordinates": [-136.33990076726167, -15.253579823366557]}}, {"type": "Feature", "properties": {"norad_id": 43613, "name": "ICESAT-2", "group": "resource", "lat": -58.45472769892599, "lon": 56.363882936366515, "alt_km": 488.0869833460929, "timestamp": "2025-12-08T15:42:49.436025+00:00", "meta": {"OBJECT_NAME": "ICESAT-2", "OBJECT_ID": "2018-070A", "EPOCH": "2025-12-08T06:48:57.028032", "MEAN_MOTION": 15.28227166, "ECCENTRICITY": 0.00020122, "INCLINATION": 92.0046, "RA_OF_ASC_NODE": 239.5347, "ARG_OF_PERICENTER": 159.8615, "MEAN_ANOMALY": 200.2714, "EPHEMERIS_TYPE": 0, "CLASSIFICATION_TYPE": "U", "NORAD_CAT_ID": 43613, "ELEMENT_SET_NO": 999, "REV_AT_EPOCH": 40330, "BSTAR": 0.0005640814, "MEAN_MOTION_DOT": 0.00015519, "MEAN_MOTION_DDOT": 0}, "tle": {"line1": "1 43613U 18070A   25342.28399338  .00015519  00000+0  56408-3 0  9990", "line2": "2 43613  92.0046 239.5347 0002012 159.8615 200.2714 15.28227166403309"}}, "geometry": {"type": "Point", "coordinates": [56.363882936366515, -58.45472769892599]}}, {"type": "Feature", "properties": {"norad_id": 43719, "name": "HYSIS", "group": "resource", "lat": 18.551305306001005, "lon": 42.94386246509143, "alt_km": 633.1868678515384, "timestamp": "2025-12-08T15:42:49.436035+00:00", "meta": {"OBJECT_NAME": "HYSIS", "OBJECT_ID": "2018-096A", "EPOCH": "2025-12-08T05:53:04.486848", "MEAN_MOTION": 14.78627148, "ECCENTRICITY": 0.00015187, "INCLINATION": 98.01, "RA_OF_ASC_NODE": 45.2449, "ARG_OF_PERICENTER": 62.5566, "MEAN_ANOMALY": 297.5799, "EPHEMERIS_TYPE": 0, "CLASSIFICATION_TYPE": "U", "NORAD_CAT_ID": 43719, "ELEMENT_SET_NO": 999, "REV_AT_EPOCH": 37920, "BSTAR": 0.00033101198, "MEAN_MOTION_DOT": 2.372e-05, "MEAN_MOTION_DDOT": 0}, "tle": {"line1": "1 43719U 18096A   25342.24519082  .00002372  00000+0  33101-3 0  9999", "line2": "2 43719  98.0100  45.2449 0001518  62.5566 297.5799 14.78627148379204"}}, "geometry": {"type": "Point", "coordinates": [42.94386246509143, 18.551305306001005]}}, {"type": "Feature", "properties": {"norad_id": 43783, "name": "KAZSTSAT", "group": "resource", "lat": -48.415744004257846, "lon": 26.501574774555095, "alt_km": 572.3750144142268, "timestamp": "2025-12-08T15:42:49.436046+00:00", "meta": {"OBJECT_NAME": "KAZSTSAT", "OBJECT_ID": "2018-099AB", "EPOCH": "2025-12-08T01:30:57.863808", "MEAN_MOTION": 14.99330221, "ECCENTRICITY": 0.0006174, "INCLINATION": 97.4554, "RA_OF_ASC_NODE": 17.449, "ARG_OF_PERICENTER": 349.1995, "MEAN_ANOMALY": 10.9095, "EPHEMERIS_TYPE": 0, "CLASSIFICATION_TYPE": "U", "NORAD_CAT_ID": 43783, "ELEMENT_SET_NO": 999, "REV_AT_EPOCH": 38266, "BSTAR": 0.0002132483, "MEAN_MOTION_DOT": 2.551e-05, "MEAN_MOTION_DDOT": 0}, "tle": {"line1": "1 43783U 18099AB  25342.06316972  .00002551  00000+0  21325-3 0  9990", "line2": "2 43783  97.4554  17.4490 0006174 349.1995  10.9095 14.99330221382667"}}, "geometry": {"type": "Point", "coordinates": [26.501574774555095, -48.415744004257846]}}, {"type": "Feature", "properties": {"norad_id": 43831, "name": "SAUDISAT 5A", "group": "resource", "lat": -21.944856319676017, "lon": 45.89992922388724, "alt_km": 497.327427726972, "timestamp": "2025-12-08T15:42:49.436056+00:00", "meta": {"OBJECT_NAME": "SAUDISAT 5A", "OBJECT_ID": "2018-102A", "EPOCH": "2025-12-08T06:21:55.614528", "MEAN_MOTION": 15.25572264, "ECCENTRICITY": 0.0011816, "INCLINATION": 97.3354, "RA_OF_ASC_NODE": 42.5428, "ARG_OF_PERICENTER": 89.834, "MEAN_ANOMALY": 270.4252, "EPHEMERIS_TYPE": 0, "CLASSIFICATION_TYPE": "U", "NORAD_CAT_ID": 43831, "ELEMENT_SET_NO": 999, "REV_AT_EPOCH": 38654, "BSTAR": 0.00033759375, "MEAN_MOTION_DOT": 8.517e-05, "MEAN_MOTION_DDOT": 0}, "tle": {"line1": "1 43831U 18102A   25342.26522702  .00008517  00000+0  33759-3 0  9993", "line2": "2 43831  97.3354  42.5428 0011816  89.8340 270.4252 15.25572264386543"}}, "geometry": {"type": "Point", "coordinates": [45.89992922388724, -21.944856319676017]}}, {"type": "Feature", "properties": {"norad_id": 43833, "name": "SAUDISAT 5B", "group": "resource", "lat": 24.703500981689796, "lon": 42.254168504949334, "alt_km": 483.8787869439702, "timestamp": "2025-12-08T15:42:49.436067+00:00", "meta": {"OBJECT_NAME": "SAUDISAT 5B", "OBJECT_ID": "2018-102C", "EPOCH": "2025-12-08T06:09:43.088544", "MEAN_MOTION": 15.25927274, "ECCENTRICITY": 0.00125284, "INCLINATION": 97.3449, "RA_OF_ASC_NODE": 45.265, "ARG_OF_PERICENTER": 92.3652, "MEAN_ANOMALY": 267.9021, "EPHEMERIS_TYPE": 0, "CLASSIFICATION_TYPE": "U", "NORAD_CAT_ID": 43833, "ELEMENT_SET_NO": 999, "REV_AT_EPOCH": 38665, "BSTAR": 0.00033071118, "MEAN_MOTION_DOT": 8.433e-05, "MEAN_MOTION_DDOT": 0}, "tle": {"line1": "1 43833U 18102C   25342.25674871  .00008433  00000+0  33071-3 0  9993", "line2": "2 43833  97.3449  45.2650 0012528  92.3652 267.9021 15.25927274386655"}}, "geometry": {"type": "Point", "coordinates": [42.254168504949334, 24.703500981689796]}}]}